stk.v.4.3

BEGIN Ephemeris

NumberOfEphemerisPoints   32

ScenarioEpoch           02 May 2018 16:45:00.000000
InterpolationMethod     Lagrange
InterpolationOrder      7
CentralBody             Earth
CoordinateSystem        J2000
DistanceUnit     Kilometers

EphemerisTimePosVel

0.0 -14099.2497993 8825.17637175 20796.9212624 -2.94396125108 -2.28782257793 -1.01318250633 
60.0 -14276.2995016 8686.82715481 20735.0035322 -2.92589795112 -2.29897036724 -1.03962089178 
120.0 -14452.2600825 8547.80500089 20671.4906903 -2.90761030891 -2.30994136138 -1.06597888731 
180.0 -14627.1178857 8408.12060405 20606.3875423 -2.88909972511 -2.32073471995 -1.09225447401 
240.0 -14800.8593391 8267.78471127 20539.6990182 -2.87036761746 -2.33134961619 -1.11844563929 
300.0 -14973.470956 8126.80812156 20471.4301718 -2.85141542066 -2.34178523699 -1.14455037701 
360.0 -15144.9393359 7985.20168514 20401.586181 -2.83224458627 -2.35204078298 -1.17056668766 
420.0 -15315.2511657 7842.9763026 20330.1723468 -2.81285658262 -2.36211546858 -1.1964925785 
480.0 -15484.393221 7700.14292403 20257.194093 -2.79325289464 -2.37200852206 -1.2223260637 
540.0 -15652.3523669 7556.71254818 20182.6569661 -2.7734350238 -2.38171918559 -1.24806516453 
600.0 -15819.115559 7412.69622159 20106.5666347 -2.75340448799 -2.39124671533 -1.27370790946 
660.0 -15984.6698449 7268.10503774 20028.9288889 -2.73316282138 -2.40059038147 -1.29925233436 
720.0 -16149.0023647 7122.95013616 19949.7496405 -2.7127115743 -2.40974946825 -1.32469648262 
780.0 -16312.1003523 6977.24270155 19869.0349215 -2.69205231315 -2.41872327408 -1.35003840531 
840.0 -16473.9511367 6830.99396297 19786.7908847 -2.67118662027 -2.42751111156 -1.37527616134 
900.0 -16634.5421423 6684.21519285 19703.0238028 -2.65011609379 -2.43611230751 -1.40040781756 
960.0 -16793.8608907 6536.91770621 19617.7400676 -2.62884234756 -2.44452620306 -1.425431449 
1020.0 -16951.8950014 6389.11285969 19530.9461901 -2.60736701098 -2.45275215368 -1.45034513891 
1080.0 -17108.6321925 6240.81205073 19442.6487998 -2.58569172889 -2.46078952926 -1.475146979 
1140.0 -17264.0602822 6092.02671661 19352.8546441 -2.56381816146 -2.46863771411 -1.49983506951 
1200.0 -17418.1671895 5942.76833357 19261.5705876 -2.54174798405 -2.47629610702 -1.52440751943 
1260.0 -17570.9409352 5793.04841594 19168.8036123 -2.51948288707 -2.48376412135 -1.54886244658 
1320.0 -17722.3696431 5642.87851518 19074.560816 -2.49702457586 -2.49104118502 -1.57319797777 
1380.0 -17872.4415406 5492.27021901 18978.849413 -2.47437477058 -2.49812674058 -1.59741224899 
1440.0 -18021.1449598 5341.23515047 18881.6767323 -2.45153520604 -2.50502024525 -1.62150340549 
1500.0 -18168.4683387 5189.78496702 18783.0502181 -2.4285076316 -2.51172117097 -1.64546960195 
1560.0 -18314.4002217 5037.93135962 18682.9774284 -2.40529381101 -2.5182290044 -1.66930900264 
1620.0 -18458.9292608 4885.68605179 18581.466035 -2.38189552231 -2.52454324703 -1.69301978151 
1680.0 -18602.0442166 4733.06079869 18478.5238228 -2.35831455765 -2.53066341516 -1.71660012238 
1740.0 -18743.733959 4580.06738621 18374.1586888 -2.33455272318 -2.53658903994 -1.74004821906 
1800.0 -18883.9874683 4426.71763001 18268.3786419 -2.31061183891 -2.54231966745 -1.76336227549 
1800.0 -18883.9874683 4426.71763001 18268.3786419 -2.31061183891 -2.54231966745 -1.76336227549 
